{"type": "FeatureCollection", "features": [ {"type": "Feature", "properties": {"norad_id": 31735, "name": "FENGYUN 1C DEB", "group": "fengyun-1c-debris", "lat": -16.279191150379983, "lon": -88.26715118603208, "alt_km": 744.0186170288644, "timestamp": "2025-12-16T21:38:57.458751+00:00", "meta": {"OBJECT_NAME": "FENGYUN 1C DEB", "OBJECT_ID": "1999-025CEJ", "EPOCH": "2025-12-16T02:25:27.533568", "MEAN_MOTION": 14.42553098, "ECCENTRICITY": 0.00588826, "INCLINATION": 98.5801, "RA_OF_ASC_NODE": 93.4541, "ARG_OF_PERICENTER": 274.0925, "MEAN_ANOMALY": 85.3535, "EPHEMERIS_TYPE": 0, "CLASSIFICATION_TYPE": "U", "NORAD_CAT_ID": 31735, "ELEMENT_SET_NO": 999, "REV_AT_EPOCH": 96713, "BSTAR": 0.00031395089, "MEAN_MOTION_DOT": 1.017e-05, "MEAN_MOTION_DDOT": 0}, "tle": {"line1": "1 31735U 99025CEJ 25350.10101312  .00001017  00000+0  31395-3 0  9990", "line2": "2 31735  98.5801  93.4541 0058882 274.0925  85.3535 14.42553098967134"}}, "geometry": {"type": "Point", "coordinates": [-88.26715118603208, -16.279191150379983]}}, {"type": "Feature", "properties": {"norad_id": 31736, "name": "FENGYUN 1C DEB", "group": "fengyun-1c-debris", "lat": 30.78501650476649, "lon": 177.91519489554486, "alt_km": 841.8939947098643, "timestamp": "2025-12-16T21:38:57.458761+00:00", "meta": {"OBJECT_NAME": "FENGYUN 1C DEB", "OBJECT_ID": "1999-025CEK", "EPOCH": "2025-12-15T05:53:32.333568", "MEAN_MOTION": 14.14185277, "ECCENTRICITY": 0.00111264, "INCLINATION": 98.6781, "RA_OF_ASC_NODE": 351.0859, "ARG_OF_PERICENTER": 232.9852, "MEAN_ANOMALY": 127.0304, "EPHEMERIS_TYPE": 0, "CLASSIFICATION_TYPE": "U", "NORAD_CAT_ID": 31736, "ELEMENT_SET_NO": 999, "REV_AT_EPOCH": 64100, "BSTAR": 0.00017464389, "MEAN_MOTION_DOT": 2.9e-06, "MEAN_MOTION_DDOT": 0}, "tle": {"line1": "1 31736U 99025CEK 25349.24551312  .00000290  00000+0  17464-3 0  9996", "line2": "2 31736  98.6781 351.0859 0011126 232.9852 127.0304 14.14185277641002"}}, "geometry": {"type": "Point", "coordinates": [177.91519489554486, 30.78501650476649]}}, {"type": "Feature", "properties": {"norad_id": 31737, "name": "FENGYUN 1C DEB", "group": "fengyun-1c-debris", "lat": 13.554605757647556, "lon": -153.78973300915675, "alt_km": 766.3427926455543, "timestamp": "2025-12-16T21:38:57.458783+00:00", "meta": {"OBJECT_NAME": "FENGYUN 1C DEB", "OBJECT_ID": "1999-025CEL", "EPOCH": "2025-12-16T01:24:56.560608", "MEAN_MOTION": 14.68768969, "ECCENTRICITY": 0.01484666, "INCLINATION": 97.9177, "RA_OF_ASC_NODE": 23.4707, "ARG_OF_PERICENTER": 5.1469, "MEAN_ANOMALY": 25.4816, "EPHEMERIS_TYPE": 0, "CLASSIFICATION_TYPE": "U", "NORAD_CAT_ID": 31737, "ELEMENT_SET_NO": 999, "REV_AT_EPOCH": 98248, "BSTAR": 0.00041052782, "MEAN_MOTION_DOT": 2.777e-05, "MEAN_MOTION_DDOT": 0}, "tle": {"line1": "1 31737U 99025CEL 25350.05898797  .00002777  00000+0  41053-3 0  9992", "line2": "2 31737  97.9177  23.4707 0148466   5.1469  25.4816 14.68768969982481"}}, "geometry": {"type": "Point", "coordinates": [-153.78973300915675, 13.554605757647556]}}, {"type": "Feature", "properties": {"norad_id": 31738, "name": "FENGYUN 1C DEB", "group": "fengyun-1c-debris", "lat": 22.089760331080726, "lon": 54.30695397277463, "alt_km": 850.6868535950471, "timestamp": "2025-12-16T21:38:57.458794+00:00", "meta": {"OBJECT_NAME": "FENGYUN 1C DEB", "OBJECT_ID": "1999-025CEM", "EPOCH": "2025-12-16T00:44:19.227840", "MEAN_MOTION": 13.85068402, "ECCENTRICITY": 0.03071982, "INCLINATION": 99.3598, "RA_OF_ASC_NODE": 57.2745, "ARG_OF_PERICENTER": 91.5021, "MEAN_ANOMALY": 272.1342, "EPHEMERIS_TYPE": 0, "CLASSIFICATION_TYPE": "U", "NORAD_CAT_ID": 31738, "ELEMENT_SET_NO": 999, "REV_AT_EPOCH": 62303, "BSTAR": 0.00086045349, "MEAN_MOTION_DOT": 1.365e-05, "MEAN_MOTION_DDOT": 0}, "tle": {"line1": "1 31738U 99025CEM 25350.03077810  .00001365  00000+0  86045-3 0  9998", "line2": "2 31738  99.3598  57.2745 0307198  91.5021 272.1342 13.85068402623035"}}, "geometry": {"type": "Point", "coordinates": [54.30695397277463, 22.089760331080726]}}, {"type": "Feature", "properties": {"norad_id": 31739, "name": "FENGYUN 1C DEB", "group": "fengyun-1c-debris", "lat": 79.52806096091099, "lon": -77.41012433092996, "alt_km": 739.7319179308834, "timestamp": "2025-12-16T21:38:57.458805+00:00", "meta": {"OBJECT_NAME": "FENGYUN 1C DEB", "OBJECT_ID": "1999-025CEN", "EPOCH": "2025-12-15T21:31:16.523328", "MEAN_MOTION": 14.19219092, "ECCENTRICITY": 0.01283611, "INCLINATION": 98.7474, "RA_OF_ASC_NODE": 45.1887, "ARG_OF_PERICENTER": 69.2246, "MEAN_ANOMALY": 292.2628, "EPHEMERIS_TYPE": 0, "CLASSIFICATION_TYPE": "U", "NORAD_CAT_ID": 31739, "ELEMENT_SET_NO": 999, "REV_AT_EPOCH": 95531, "BSTAR": 9.2649556e-05, "MEAN_MOTION_DOT": 1.68e-06, "MEAN_MOTION_DDOT": 0}, "tle": {"line1": "1 31739U 99025CEN 25349.89671902  .00000168  00000+0  92650-4 0  9993", "line2": "2 31739  98.7474  45.1887 0128361  69.2246 292.2628 14.19219092955319"}}, "geometry": {"type": "Point", "coordinates": [-77.41012433092996, 79.52806096091099]}}, {"type": "Feature", "properties": {"norad_id": 31740, "name": "FENGYUN 1C DEB", "group": "fengyun-1c-debris", "lat": 33.14358884412598, "lon": 156.37027340957573, "alt_km": 733.1424699015051, "timestamp": "2025-12-16T21:38:57.458816+00:00", "meta": {"OBJECT_NAME": "FENGYUN 1C DEB", "OBJECT_ID": "1999-025CEP", "EPOCH": "2025-12-14T23:34:19.860384", "MEAN_MOTION": 14.42186075, "ECCENTRICITY": 0.00242908, "INCLINATION": 99.8218, "RA_OF_ASC_NODE": 160.6587, "ARG_OF_PERICENTER": 61.8964, "MEAN_ANOMALY": 89.7364, "EPHEMERIS_TYPE": 0, "CLASSIFICATION_TYPE": "U", "NORAD_CAT_ID": 31740, "ELEMENT_SET_NO": 999, "REV_AT_EPOCH": 65107, "BSTAR": 0.00089360339, "MEAN_MOTION_DOT": 2.898e-05, "MEAN_MOTION_DDOT": 0}, "tle": {"line1": "1 31740U 99025CEP 25348.98217431  .00002898  00000+0  89360-3 0  9992", "line2": "2 31740  99.8218 160.6587 0024290  61.8964  89.7364 14.42186075651072"}}, "geometry": {"type": "Point", "coordinates": [156.37027340957573, 33.14358884412598]}}, {"type": "Feature", "properties": {"norad_id": 31742, "name": "FENGYUN 1C DEB", "group": "fengyun-1c-debris", "lat": 75.88090232881784, "lon": 69.51371666118976, "alt_km": 795.6962953896573, "timestamp": "2025-12-16T21:38:57.458826+00:00", "meta": {"OBJECT_NAME": "FENGYUN 1C DEB", "OBJECT_ID": "1999-025CER", "EPOCH": "2025-12-15T20:09:51.774048", "MEAN_MOTION": 14.39810323, "ECCENTRICITY": 0.00763642, "INCLINATION": 98.9192, "RA_OF_ASC_NODE": 209.7759, "ARG_OF_PERICENTER": 320.3778, "MEAN_ANOMALY": 39.1843, "EPHEMERIS_TYPE": 0, "CLASSIFICATION_TYPE": "U", "NORAD_CAT_ID": 31742, "ELEMENT_SET_NO": 999, "REV_AT_EPOCH": 96694, "BSTAR": 0.00050190865, "MEAN_MOTION_DOT": 1.58e-05, "MEAN_MOTION_DDOT": 0}, "tle": {"line1": "1 31742U 99025CER 25349.84018257  .00001580  00000+0  50191-3 0  9992", "line2": "2 31742  98.9192 209.7759 0076364 320.3778  39.1843 14.39810323966948"}}, "geometry": {"type": "Point", "coordinates": [69.51371666118976, 75.88090232881784]}}, {"type": "Feature", "properties": {"norad_id": 31743, "name": "FENGYUN 1C DEB", "group": "fengyun-1c-debris", "lat": 54.79531235754678, "lon": -94.15589469276289, "alt_km": 805.3011755926245, "timestamp": "2025-12-16T21:38:57.458836+00:00", "meta": {"OBJECT_NAME": "FENGYUN 1C DEB", "OBJECT_ID": "1999-025CES", "EPOCH": "2025-12-16T01:33:55.173888", "MEAN_MOTION": 14.31322909, "ECCENTRICITY": 0.00372828, "INCLINATION": 99.1416, "RA_OF_ASC_NODE": 278.1565, "ARG_OF_PERICENTER": 208.9252, "MEAN_ANOMALY": 217.6208, "EPHEMERIS_TYPE": 0, "CLASSIFICATION_TYPE": "U", "NORAD_CAT_ID": 31743, "ELEMENT_SET_NO": 999, "REV_AT_EPOCH": 95688, "BSTAR": 0.0010864553, "MEAN_MOTION_DOT": 2.851e-05, "MEAN_MOTION_DDOT": 0}, "tle": {"line1": "1 31743U 99025CES 25350.06522192  .00002851  00000+0  10865-2 0  9992", "line2": "2 31743  99.1416 278.1565 0037282 208.9252 217.6208 14.31322909956880"}}, "geometry": {"type": "Point", "coordinates": [-94.15589469276289, 54.79531235754678]}}, {"type": "Feature", "properties": {"norad_id": 31744, "name": "FENGYUN 1C DEB", "group": "fengyun-1c-debris", "lat": 26.408432750204543, "lon": -73.26142416557106, "alt_km": 945.7377023640929, "timestamp": "2025-12-16T21:38:57.458847+00:00", "meta": {"OBJECT_NAME": "FENGYUN 1C DEB", "OBJECT_ID": "1999-025CET", "EPOCH": "2025-12-16T00:36:41.984352", "MEAN_MOTION": 14.16595089, "ECCENTRICITY": 0.03152351, "INCLINATION": 99.3042, "RA_OF_ASC_NODE": 101.1514, "ARG_OF_PERICENTER": 35.1213, "MEAN_ANOMALY": 327.0304, "EPHEMERIS_TYPE": 0, "CLASSIFICATION_TYPE": "U", "NORAD_CAT_ID": 31744, "ELEMENT_SET_NO": 999, "REV_AT_EPOCH": 94661, "BSTAR": 0.0010066162, "MEAN_MOTION_DOT": 3.215e-05, "MEAN_MOTION_DDOT": 0}, "tle": {"line1": "1 31744U 99025CET 25350.02548593  .00003215  00000+0  10066-2 0  9990", "line2": "2 31744  99.3042 101.1514 0315235  35.1213 327.0304 14.16595089946618"}}, "geometry": {"type": "Point", "coordinates": [-73.26142416557106, 26.408432750204543]}}, {"type": "Feature", "properties": {"norad_id": 31746, "name": "FENGYUN 1C DEB", "group": "fengyun-1c-debris", "lat": 43.96403113931465, "lon": 105.36291141322329, "alt_km": 648.8445128392113, "timestamp": "2025-12-16T21:38:57.458857+00:00", "meta": {"OBJECT_NAME": "FENGYUN 1C DEB", "OBJECT_ID": "1999-025CEV", "EPOCH": "2025-12-12T06:52:47.387712", "MEAN_MOTION": 14.76733857, "ECCENTRICITY": 0.00233649, "INCLINATION": 98.5885, "RA_OF_ASC_NODE": 108.8357, "ARG_OF_PERICENTER": 208.057, "MEAN_ANOMALY": 151.938, "EPHEMERIS_TYPE": 0, "CLASSIFICATION_TYPE": "U", "NORAD_CAT_ID": 31746, "ELEMENT_SET_NO": 999, "REV_AT_EPOCH": 97021, "BSTAR": 0.0053337592, "MEAN_MOTION_DOT": 0.00037665, "MEAN_MOTION_DDOT": 0}, "tle": {"line1": "1 31746U 99025CEV 25346.28665958  .00037665  00000+0  53338-2 0  9995", "line2": "2 31746  98.5885 108.8357 0023364 208.0570 151.9380 14.76733857970215"}}, "geometry": {"type": "Point", "coordinates": [105.36291141322329, 43.96403113931465]}}]}